{"type": "FeatureCollection", "features": [ {"type": "Feature", "properties": {"norad_id": 66930, "name": "STARLINK-36206", "group": "last-30-days", "lat": 22.817028282454004, "lon": -2.8462131588942605, "alt_km": 406.93500919908183, "timestamp": "2025-12-27T03:58:42.933376+00:00", "meta": {"OBJECT_NAME": "STARLINK-36206", "OBJECT_ID": "2025-286F", "EPOCH": "2025-12-26T20:00:01.999008", "MEAN_MOTION": 15.53865477, "ECCENTRICITY": 0.0001176, "INCLINATION": 53.1593, "RA_OF_ASC_NODE": 340.3664, "ARG_OF_PERICENTER": 109.769, "MEAN_ANOMALY": 219.6163, "EPHEMERIS_TYPE": 0, "CLASSIFICATION_TYPE": "U", "NORAD_CAT_ID": 66930, "ELEMENT_SET_NO": 999, "REV_AT_EPOCH": 425, "BSTAR": -0.034252, "MEAN_MOTION_DOT": -0.02005607, "MEAN_MOTION_DDOT": 0}, "tle": {"line1": "1 66930U 25286F   25360.83335647 -.02005607  00000+0 -34252-1 0  9990", "line2": "2 66930  53.1593 340.3664 0001176 109.7690 219.6163 15.53865477  4255"}}, "geometry": {"type": "Point", "coordinates": [-2.8462131588942605, 22.817028282454004]}}, {"type": "Feature", "properties": {"norad_id": 66931, "name": "STARLINK-36130", "group": "last-30-days", "lat": 24.283918159187067, "lon": -1.4644127639633067, "alt_km": 406.7781874605016, "timestamp": "2025-12-27T03:58:42.933385+00:00", "meta": {"OBJECT_NAME": "STARLINK-36130", "OBJECT_ID": "2025-286G", "EPOCH": "2025-12-26T20:00:01.999008", "MEAN_MOTION": 15.53874483, "ECCENTRICITY": 0.0001238, "INCLINATION": 53.1594, "RA_OF_ASC_NODE": 340.3633, "ARG_OF_PERICENTER": 111.3757, "MEAN_ANOMALY": 219.9639, "EPHEMERIS_TYPE": 0, "CLASSIFICATION_TYPE": "U", "NORAD_CAT_ID": 66931, "ELEMENT_SET_NO": 999, "REV_AT_EPOCH": 425, "BSTAR": -0.035287, "MEAN_MOTION_DOT": -0.02060263, "MEAN_MOTION_DDOT": 0}, "tle": {"line1": "1 66931U 25286G   25360.83335647 -.02060263  00000+0 -35287-1 0  9999", "line2": "2 66931  53.1594 340.3633 0001238 111.3757 219.9639 15.53874483  4253"}}, "geometry": {"type": "Point", "coordinates": [-1.4644127639633067, 24.283918159187067]}}, {"type": "Feature", "properties": {"norad_id": 66932, "name": "STARLINK-36177", "group": "last-30-days", "lat": 25.705051608392736, "lon": -0.08480641339675425, "alt_km": 406.3939753917548, "timestamp": "2025-12-27T03:58:42.933393+00:00", "meta": {"OBJECT_NAME": "STARLINK-36177", "OBJECT_ID": "2025-286H", "EPOCH": "2025-12-26T20:00:01.999008", "MEAN_MOTION": 15.53860163, "ECCENTRICITY": 0.0001242, "INCLINATION": 53.1593, "RA_OF_ASC_NODE": 340.3583, "ARG_OF_PERICENTER": 109.1757, "MEAN_ANOMALY": 224.0449, "EPHEMERIS_TYPE": 0, "CLASSIFICATION_TYPE": "U", "NORAD_CAT_ID": 66932, "ELEMENT_SET_NO": 999, "REV_AT_EPOCH": 425, "BSTAR": -0.034113, "MEAN_MOTION_DOT": -0.01998011, "MEAN_MOTION_DDOT": 0}, "tle": {"line1": "1 66932U 25286H   25360.83335647 -.01998011  00000+0 -34113-1 0  9997", "line2": "2 66932  53.1593 340.3583 0001242 109.1757 224.0449 15.53860163  4253"}}, "geometry": {"type": "Point", "coordinates": [-0.08480641339675425, 25.705051608392736]}}, {"type": "Feature", "properties": {"norad_id": 66933, "name": "STARLINK-36157", "group": "last-30-days", "lat": 27.12883436786116, "lon": 1.34573197714532, "alt_km": 405.9697825736557, "timestamp": "2025-12-27T03:58:42.933403+00:00", "meta": {"OBJECT_NAME": "STARLINK-36157", "OBJECT_ID": "2025-286J", "EPOCH": "2025-12-26T20:00:01.999008", "MEAN_MOTION": 15.5386512, "ECCENTRICITY": 0.0001343, "INCLINATION": 53.1595, "RA_OF_ASC_NODE": 340.3547, "ARG_OF_PERICENTER": 98.4576, "MEAN_ANOMALY": 236.6756, "EPHEMERIS_TYPE": 0, "CLASSIFICATION_TYPE": "U", "NORAD_CAT_ID": 66933, "ELEMENT_SET_NO": 999, "REV_AT_EPOCH": 425, "BSTAR": -0.034223, "MEAN_MOTION_DOT": -0.02004153, "MEAN_MOTION_DDOT": 0}, "tle": {"line1": "1 66933U 25286J   25360.83335647 -.02004153  00000+0 -34223-1 0  9996", "line2": "2 66933  53.1595 340.3547 0001343  98.4576 236.6756 15.53865120  4255"}}, "geometry": {"type": "Point", "coordinates": [1.34573197714532, 27.12883436786116]}}, {"type": "Feature", "properties": {"norad_id": 66934, "name": "STARLINK-36153", "group": "last-30-days", "lat": 28.539399212959854, "lon": 2.8160714539492155, "alt_km": 405.72598793924317, "timestamp": "2025-12-27T03:58:42.933411+00:00", "meta": {"OBJECT_NAME": "STARLINK-36153", "OBJECT_ID": "2025-286K", "EPOCH": "2025-12-26T20:00:01.999008", "MEAN_MOTION": 15.53865516, "ECCENTRICITY": 0.0001332, "INCLINATION": 53.1586, "RA_OF_ASC_NODE": 340.3513, "ARG_OF_PERICENTER": 99.4346, "MEAN_ANOMALY": 237.616, "EPHEMERIS_TYPE": 0, "CLASSIFICATION_TYPE": "U", "NORAD_CAT_ID": 66934, "ELEMENT_SET_NO": 999, "REV_AT_EPOCH": 425, "BSTAR": -0.034218, "MEAN_MOTION_DOT": -0.02003912, "MEAN_MOTION_DDOT": 0}, "tle": {"line1": "1 66934U 25286K   25360.83335647 -.02003912  00000+0 -34218-1 0  9993", "line2": "2 66934  53.1586 340.3513 0001332  99.4346 237.6160 15.53865516  4252"}}, "geometry": {"type": "Point", "coordinates": [2.8160714539492155, 28.539399212959854]}}, {"type": "Feature", "properties": {"norad_id": 66935, "name": "STARLINK-36127", "group": "last-30-days", "lat": 29.93431007477394, "lon": 4.323967247748393, "alt_km": 405.5644799788033, "timestamp": "2025-12-27T03:58:42.933421+00:00", "meta": {"OBJECT_NAME": "STARLINK-36127", "OBJECT_ID": "2025-286L", "EPOCH": "2025-12-26T20:00:01.999008", "MEAN_MOTION": 15.5386488, "ECCENTRICITY": 0.0001282, "INCLINATION": 53.1588, "RA_OF_ASC_NODE": 340.3459, "ARG_OF_PERICENTER": 104.8333, "MEAN_ANOMALY": 234.1383, "EPHEMERIS_TYPE": 0, "CLASSIFICATION_TYPE": "U", "NORAD_CAT_ID": 66935, "ELEMENT_SET_NO": 999, "REV_AT_EPOCH": 425, "BSTAR": -0.034292, "MEAN_MOTION_DOT": -0.02007691, "MEAN_MOTION_DDOT": 0}, "tle": {"line1": "1 66935U 25286L   25360.83335647 -.02007691  00000+0 -34292-1 0  9994", "line2": "2 66935  53.1588 340.3459 0001282 104.8333 234.1383 15.53864880  4257"}}, "geometry": {"type": "Point", "coordinates": [4.323967247748393, 29.93431007477394]}}, {"type": "Feature", "properties": {"norad_id": 66936, "name": "STARLINK-36160", "group": "last-30-days", "lat": 31.309363367574647, "lon": 5.874803550285403, "alt_km": 405.36261987495527, "timestamp": "2025-12-27T03:58:42.933430+00:00", "meta": {"OBJECT_NAME": "STARLINK-36160", "OBJECT_ID": "2025-286M", "EPOCH": "2025-12-26T20:00:01.999008", "MEAN_MOTION": 15.53862958, "ECCENTRICITY": 0.0001255, "INCLINATION": 53.1586, "RA_OF_ASC_NODE": 340.3427, "ARG_OF_PERICENTER": 108.6496, "MEAN_ANOMALY": 232.2375, "EPHEMERIS_TYPE": 0, "CLASSIFICATION_TYPE": "U", "NORAD_CAT_ID": 66936, "ELEMENT_SET_NO": 999, "REV_AT_EPOCH": 425, "BSTAR": -0.034196, "MEAN_MOTION_DOT": -0.02002512, "MEAN_MOTION_DDOT": 0}, "tle": {"line1": "1 66936U 25286M   25360.83335647 -.02002512  00000+0 -34196-1 0  9995", "line2": "2 66936  53.1586 340.3427 0001255 108.6496 232.2375 15.53862958  4257"}}, "geometry": {"type": "Point", "coordinates": [5.874803550285403, 31.309363367574647]}}, {"type": "Feature", "properties": {"norad_id": 66937, "name": "STARLINK-36165", "group": "last-30-days", "lat": 32.66691886258117, "lon": 7.4718476097231035, "alt_km": 405.14837364357754, "timestamp": "2025-12-27T03:58:42.933441+00:00", "meta": {"OBJECT_NAME": "STARLINK-36165", "OBJECT_ID": "2025-286N", "EPOCH": "2025-12-26T20:00:01.999008", "MEAN_MOTION": 15.53868904, "ECCENTRICITY": 0.0001223, "INCLINATION": 53.1589, "RA_OF_ASC_NODE": 340.3384, "ARG_OF_PERICENTER": 110.797, "MEAN_ANOMALY": 232.0041, "EPHEMERIS_TYPE": 0, "CLASSIFICATION_TYPE": "U", "NORAD_CAT_ID": 66937, "ELEMENT_SET_NO": 999, "REV_AT_EPOCH": 425, "BSTAR": -0.034327, "MEAN_MOTION_DOT": -0.02009748, "MEAN_MOTION_DDOT": 0}, "tle": {"line1": "1 66937U 25286N   25360.83335647 -.02009748  00000+0 -34327-1 0  9990", "line2": "2 66937  53.1589 340.3384 0001223 110.7970 232.0041 15.53868904  4254"}}, "geometry": {"type": "Point", "coordinates": [7.4718476097231035, 32.66691886258117]}}, {"type": "Feature", "properties": {"norad_id": 66938, "name": "STARLINK-36155", "group": "last-30-days", "lat": 34.00346529279771, "lon": 9.117674051473985, "alt_km": 404.8648513457165, "timestamp": "2025-12-27T03:58:42.933452+00:00", "meta": {"OBJECT_NAME": "STARLINK-36155", "OBJECT_ID": "2025-286P", "EPOCH": "2025-12-26T20:00:01.999008", "MEAN_MOTION": 15.53862987, "ECCENTRICITY": 0.0001164, "INCLINATION": 53.159, "RA_OF_ASC_NODE": 340.3337, "ARG_OF_PERICENTER": 105.6593, "MEAN_ANOMALY": 239.062, "EPHEMERIS_TYPE": 0, "CLASSIFICATION_TYPE": "U", "NORAD_CAT_ID": 66938, "ELEMENT_SET_NO": 999, "REV_AT_EPOCH": 425, "BSTAR": -0.034193, "MEAN_MOTION_DOT": -0.02002326, "MEAN_MOTION_DDOT": 0}, "tle": {"line1": "1 66938U 25286P   25360.83335647 -.02002326  00000+0 -34193-1 0  9997", "line2": "2 66938  53.1590 340.3337 0001164 105.6593 239.0620 15.53862987  4258"}}, "geometry": {"type": "Point", "coordinates": [9.117674051473985, 34.00346529279771]}}, {"type": "Feature", "properties": {"norad_id": 66939, "name": "STARLINK-36154", "group": "last-30-days", "lat": 36.60368436591821, "lon": 12.566973682649602, "alt_km": 404.3925017720994, "timestamp": "2025-12-27T03:58:42.933463+00:00", "meta": {"OBJECT_NAME": "STARLINK-36154", "OBJECT_ID": "2025-286Q", "EPOCH": "2025-12-26T20:00:01.999008", "MEAN_MOTION": 15.53865569, "ECCENTRICITY": 0.0001251, "INCLINATION": 53.1593, "RA_OF_ASC_NODE": 340.3256, "ARG_OF_PERICENTER": 107.7145, "MEAN_ANOMALY": 240.8376, "EPHEMERIS_TYPE": 0, "CLASSIFICATION_TYPE": "U", "NORAD_CAT_ID": 66939, "ELEMENT_SET_NO": 999, "REV_AT_EPOCH": 425, "BSTAR": -0.034256, "MEAN_MOTION_DOT": -0.02005833, "MEAN_MOTION_DDOT": 0}, "tle": {"line1": "1 66939U 25286Q   25360.83335647 -.02005833  00000+0 -34256-1 0  9994", "line2": "2 66939  53.1593 340.3256 0001251 107.7145 240.8376 15.53865569  4252"}}, "geometry": {"type": "Point", "coordinates": [12.566973682649602, 36.60368436591821]}}]}